{
  "norad_id": 62209,
  "name": "STARLINK-32671",
  "history": [
    {
      "epoch": "2026-05-05T13:23:56.053824Z",
      "apogee_km": 484.44853100267846,
      "perigee_km": 481.5805696546413,
      "latitude_deg": 8.99141795425405e-06,
      "longitude_deg": -114.43959474429246,
      "height_km": 482.451642202293,
      "semi_major_axis_km": 6861.15155032866,
      "eccentricity": 0.000209,
      "inclination_deg": 42.9997,
      "raan_deg": 309.9755,
      "arg_perigee_deg": 283.7204,
      "mean_anomaly_deg": 76.3415,
      "mean_motion_rev_day": 15.27591537
    },
    {
      "epoch": "2026-05-06T12:56:17.884032Z",
      "apogee_km": 483.6303660526628,
      "perigee_km": 482.41923377174226,
      "latitude_deg": 6.87371072335078e-06,
      "longitude_deg": -114.03038865830408,
      "height_km": 483.1216907757436,
      "semi_major_axis_km": 6861.161799912202,
      "eccentricity": 8.826e-05,
      "inclination_deg": 43.0039,
      "raan_deg": 304.4424,
      "arg_perigee_deg": 238.0593,
      "mean_anomaly_deg": 122.0173,
      "mean_motion_rev_day": 15.27588114
    }
  ]
}